{
  "type": "FeatureCollection",
  "features": [
    {
      "type": "Feature",
      "geometry": {
        "type": "Polygon",
        "coordinates": [
          [
            [
              151.13469954572946,
              -33.871346470435036
            ],
            [
              151.1345473823493,
              -33.871383786894754
            ],
            [
              151.1344593384683,
              -33.871128519608426
            ],
            [
              151.13460166866477,
              -33.87106811197278
            ],
            [
              151.13469954572946,
              -33.871346470435036
            ]
          ]
        ]
      },
      "properties": {
        "address": "35 Connecticut Avenue Five Dock 2046",
        "type": "lot_polygon"
      }
    },
    {
      "type": "Feature",
      "geometry": {
        "type": "Point",
        "coordinates": [
          151.1346608,
          -33.8714527
        ]
      },
      "properties": {
        "address": "35 Connecticut Avenue Five Dock 2046",
        "type": "nominatim_road_point"
      }
    },
    {
      "type": "Feature",
      "geometry": {
        "type": "Polygon",
        "coordinates": [
          [
            [
              151.139288243507,
              -33.86028416624249
            ],
            [
              151.13927133721336,
              -33.860362717642765
            ],
            [
              151.1391256450719,
              -33.86041137374736
            ],
            [
              151.13919752713804,
              -33.860080361378046
            ],
            [
              151.1393123295856,
              -33.860097553926835
            ],
            [
              151.13932486108376,
              -33.86011406578247
            ],
            [
              151.139288243507,
              -33.86028416624249
            ]
          ]
        ]
      },
      "properties": {
        "address": "28 Clare Crescent Russell Lea 2046",
        "type": "lot_polygon"
      }
    },
    {
      "type": "Feature",
      "geometry": {
        "type": "Point",
        "coordinates": [
          151.1393663,
          -33.8602916
        ]
      },
      "properties": {
        "address": "28 Clare Crescent Russell Lea 2046",
        "type": "nominatim_road_point"
      }
    },
    {
      "type": "Feature",
      "geometry": {
        "type": "Polygon",
        "coordinates": [
          [
            [
              151.1258243366986,
              -33.84797467697998
            ],
            [
              151.12571447386225,
              -33.848017210269425
            ],
            [
              151.1255807944419,
              -33.84776975068295
            ],
            [
              151.1256895276468,
              -33.84772744109115
            ],
            [
              151.1258243366986,
              -33.84797467697998
            ]
          ]
        ]
      },
      "properties": {
        "address": "18 Spring Street Abbotsford 2046",
        "type": "lot_polygon"
      }
    },
    {
      "type": "Feature",
      "geometry": {
        "type": "Point",
        "coordinates": [
          151.1257892,
          -33.8480364
        ]
      },
      "properties": {
        "address": "18 Spring Street Abbotsford 2046",
        "type": "nominatim_road_point"
      }
    }
  ]
}